[{"OBJECT_NAME":"SKYSAT-A","OBJECT_ID":"2013-066C","EPOCH":"2026-03-03T02:02:36.838176","MEAN_MOTION":15.12293304,"ECCENTRICITY":0.0020651,"INCLINATION":97.3967,"RA_OF_ASC_NODE":114.8336,"ARG_OF_PERICENTER":324.6807,"MEAN_ANOMALY":35.3055,"EPHEMERIS_TYPE":0,"CLASSIFICATION_TYPE":"U","NORAD_CAT_ID":39418,"ELEMENT_SET_NO":999,"REV_AT_EPOCH":67244,"BSTAR":0.00026551,"MEAN_MOTION_DOT":4.555e-5,"MEAN_MOTION_DDOT":0},{"OBJECT_NAME":"SKYSAT-B","OBJECT_ID":"2014-037D","EPOCH":"2026-03-02T19:14:48.840288","MEAN_MOTION":14.87691447,"ECCENTRICITY":0.00041776,"INCLINATION":98.3716,"RA_OF_ASC_NODE":14.805,"ARG_OF_PERICENTER":263.0279,"MEAN_ANOMALY":97.046,"EPHEMERIS_TYPE":0,"CLASSIFICATION_TYPE":"U","NORAD_CAT_ID":40072,"ELEMENT_SET_NO":999,"REV_AT_EPOCH":63014,"BSTAR":0.00027660176,"MEAN_MOTION_DOT":2.459e-5,"MEAN_MOTION_DDOT":0},{"OBJECT_NAME":"SKYSAT-C1","OBJECT_ID":"2016-040C","EPOCH":"2026-03-03T01:10:42.626208","MEAN_MOTION":15.343469,"ECCENTRICITY":0.0004007,"INCLINATION":96.9708,"RA_OF_ASC_NODE":99.583,"ARG_OF_PERICENTER":66.7763,"MEAN_ANOMALY":293.3903,"EPHEMERIS_TYPE":0,"CLASSIFICATION_TYPE":"U","NORAD_CAT_ID":41601,"ELEMENT_SET_NO":999,"REV_AT_EPOCH":54158,"BSTAR":0.00035069,"MEAN_MOTION_DOT":0.00011597,"MEAN_MOTION_DDOT":0},{"OBJECT_NAME":"SKYSAT-C4","OBJECT_ID":"2016-058B","EPOCH":"2026-03-03T01:12:09.270720","MEAN_MOTION":15.45093504,"ECCENTRICITY":9.1e-5,"INCLINATION":96.929,"RA_OF_ASC_NODE":88.4551,"ARG_OF_PERICENTER":78.484,"MEAN_ANOMALY":281.6512,"EPHEMERIS_TYPE":0,"CLASSIFICATION_TYPE":"U","NORAD_CAT_ID":41771,"ELEMENT_SET_NO":999,"REV_AT_EPOCH":52906,"BSTAR":0.00040663,"MEAN_MOTION_DOT":0.00019171,"MEAN_MOTION_DDOT":0},{"OBJECT_NAME":"SKYSAT-C5","OBJECT_ID":"2016-058C","EPOCH":"2026-03-03T02:35:01.437792","MEAN_MOTION":15.34136355,"ECCENTRICITY":0.0001895,"INCLINATION":97.0626,"RA_OF_ASC_NODE":107.4562,"ARG_OF_PERICENTER":85.5556,"MEAN_ANOMALY":274.5904,"EPHEMERIS_TYPE":0,"CLASSIFICATION_TYPE":"U","NORAD_CAT_ID":41772,"ELEMENT_SET_NO":999,"REV_AT_EPOCH":52748,"BSTAR":0.00031188,"MEAN_MOTION_DOT":0.00010232,"MEAN_MOTION_DDOT":0},{"OBJECT_NAME":"SKYSAT-C2","OBJECT_ID":"2016-058D","EPOCH":"2026-03-02T14:58:20.250336","MEAN_MOTION":15.39471988,"ECCENTRICITY":0.0005376,"INCLINATION":97.0285,"RA_OF_ASC_NODE":87.8558,"ARG_OF_PERICENTER":83.9934,"MEAN_ANOMALY":276.1925,"EPHEMERIS_TYPE":0,"CLASSIFICATION_TYPE":"U","NORAD_CAT_ID":41773,"ELEMENT_SET_NO":999,"REV_AT_EPOCH":52864,"BSTAR":0.00036418,"MEAN_MOTION_DOT":0.00014218,"MEAN_MOTION_DDOT":0},{"OBJECT_NAME":"SKYSAT-C3","OBJECT_ID":"2016-058E","EPOCH":"2026-03-03T00:42:56.327904","MEAN_MOTION":15.47964732,"ECCENTRICITY":0.0001519,"INCLINATION":96.9184,"RA_OF_ASC_NODE":97.1843,"ARG_OF_PERICENTER":100.8409,"MEAN_ANOMALY":259.3013,"EPHEMERIS_TYPE":0,"CLASSIFICATION_TYPE":"U","NORAD_CAT_ID":41774,"ELEMENT_SET_NO":999,"REV_AT_EPOCH":52966,"BSTAR":0.00045716,"MEAN_MOTION_DOT":0.00023815,"MEAN_MOTION_DDOT":0},{"OBJECT_NAME":"SKYSAT-C11","OBJECT_ID":"2017-068A","EPOCH":"2026-03-02T22:44:19.032864","MEAN_MOTION":15.51895202,"ECCENTRICITY":7.58e-5,"INCLINATION":97.4186,"RA_OF_ASC_NODE":206.7117,"ARG_OF_PERICENTER":87.5004,"MEAN_ANOMALY":272.6335,"EPHEMERIS_TYPE":0,"CLASSIFICATION_TYPE":"U","NORAD_CAT_ID":42987,"ELEMENT_SET_NO":999,"REV_AT_EPOCH":46673,"BSTAR":0.00052867,"MEAN_MOTION_DOT":0.00031667,"MEAN_MOTION_DDOT":0},{"OBJECT_NAME":"SKYSAT-C10","OBJECT_ID":"2017-068B","EPOCH":"2026-03-02T22:35:45.676032","MEAN_MOTION":15.32479422,"ECCENTRICITY":0.0001164,"INCLINATION":97.4323,"RA_OF_ASC_NODE":198.0229,"ARG_OF_PERICENTER":90.7199,"MEAN_ANOMALY":269.4176,"EPHEMERIS_TYPE":0,"CLASSIFICATION_TYPE":"U","NORAD_CAT_ID":42988,"ELEMENT_SET_NO":999,"REV_AT_EPOCH":46607,"BSTAR":0.00042293,"MEAN_MOTION_DOT":0.00013194,"MEAN_MOTION_DDOT":0},{"OBJECT_NAME":"SKYSAT-C9","OBJECT_ID":"2017-068C","EPOCH":"2026-03-02T21:14:19.057920","MEAN_MOTION":15.3861885,"ECCENTRICITY":0.0009644,"INCLINATION":97.4248,"RA_OF_ASC_NODE":197.9454,"ARG_OF_PERICENTER":155.2859,"MEAN_ANOMALY":204.885,"EPHEMERIS_TYPE":0,"CLASSIFICATION_TYPE":"U","NORAD_CAT_ID":42989,"ELEMENT_SET_NO":999,"REV_AT_EPOCH":46639,"BSTAR":0.00046809,"MEAN_MOTION_DOT":0.00017815,"MEAN_MOTION_DDOT":0},{"OBJECT_NAME":"SKYSAT-C8","OBJECT_ID":"2017-068D","EPOCH":"2026-03-02T22:26:27.996864","MEAN_MOTION":15.34556497,"ECCENTRICITY":0.0001184,"INCLINATION":97.4352,"RA_OF_ASC_NODE":197.4313,"ARG_OF_PERICENTER":113.5427,"MEAN_ANOMALY":246.594,"EPHEMERIS_TYPE":0,"CLASSIFICATION_TYPE":"U","NORAD_CAT_ID":42990,"ELEMENT_SET_NO":999,"REV_AT_EPOCH":46600,"BSTAR":0.00023358,"MEAN_MOTION_DOT":7.739e-5,"MEAN_MOTION_DDOT":0},{"OBJECT_NAME":"SKYSAT-C7","OBJECT_ID":"2017-068E","EPOCH":"2026-03-02T22:11:52.200672","MEAN_MOTION":15.34499388,"ECCENTRICITY":0.0007361,"INCLINATION":97.4353,"RA_OF_ASC_NODE":198.4041,"ARG_OF_PERICENTER":124.5948,"MEAN_ANOMALY":235.599,"EPHEMERIS_TYPE":0,"CLASSIFICATION_TYPE":"U","NORAD_CAT_ID":42991,"ELEMENT_SET_NO":999,"REV_AT_EPOCH":46606,"BSTAR":0.00045156,"MEAN_MOTION_DOT":0.00015035,"MEAN_MOTION_DDOT":0},{"OBJECT_NAME":"SKYSAT-C6","OBJECT_ID":"2017-068F","EPOCH":"2026-03-03T04:09:14.966496","MEAN_MOTION":15.32551843,"ECCENTRICITY":0.0003551,"INCLINATION":97.4389,"RA_OF_ASC_NODE":198.9573,"ARG_OF_PERICENTER":128.0954,"MEAN_ANOMALY":232.0608,"EPHEMERIS_TYPE":0,"CLASSIFICATION_TYPE":"U","NORAD_CAT_ID":42992,"ELEMENT_SET_NO":999,"REV_AT_EPOCH":46607,"BSTAR":0.00043091,"MEAN_MOTION_DOT":0.00013477,"MEAN_MOTION_DDOT":0},{"OBJECT_NAME":"SKYSAT-C12","OBJECT_ID":"2018-099AR","EPOCH":"2026-03-03T00:35:38.916672","MEAN_MOTION":15.45314497,"ECCENTRICITY":0.000483,"INCLINATION":96.9381,"RA_OF_ASC_NODE":89.7275,"ARG_OF_PERICENTER":155.2688,"MEAN_ANOMALY":204.8795,"EPHEMERIS_TYPE":0,"CLASSIFICATION_TYPE":"U","NORAD_CAT_ID":43797,"ELEMENT_SET_NO":999,"REV_AT_EPOCH":40544,"BSTAR":0.00041563,"MEAN_MOTION_DOT":0.00019754,"MEAN_MOTION_DDOT":0},{"OBJECT_NAME":"SKYSAT-C13","OBJECT_ID":"2018-099AW","EPOCH":"2026-03-03T01:28:55.306272","MEAN_MOTION":15.75395895,"ECCENTRICITY":0.0003317,"INCLINATION":96.9423,"RA_OF_ASC_NODE":109.6871,"ARG_OF_PERICENTER":227.2058,"MEAN_ANOMALY":132.893,"EPHEMERIS_TYPE":0,"CLASSIFICATION_TYPE":"U","NORAD_CAT_ID":43802,"ELEMENT_SET_NO":999,"REV_AT_EPOCH":40612,"BSTAR":0.00057161,"MEAN_MOTION_DOT":0.00086788,"MEAN_MOTION_DDOT":0},{"OBJECT_NAME":"FLOCK 4Q-16","OBJECT_ID":"2023-174R","EPOCH":"2026-03-02T22:52:29.279424","MEAN_MOTION":15.44353414,"ECCENTRICITY":0.0007885,"INCLINATION":97.3877,"RA_OF_ASC_NODE":147.9714,"ARG_OF_PERICENTER":179.5973,"MEAN_ANOMALY":180.5283,"EPHEMERIS_TYPE":0,"CLASSIFICATION_TYPE":"U","NORAD_CAT_ID":58271,"ELEMENT_SET_NO":999,"REV_AT_EPOCH":12915,"BSTAR":0.00064812,"MEAN_MOTION_DOT":0.00029912,"MEAN_MOTION_DDOT":0},{"OBJECT_NAME":"FLOCK 4Q-11","OBJECT_ID":"2023-174T","EPOCH":"2026-03-03T03:45:11.013408","MEAN_MOTION":15.44734789,"ECCENTRICITY":0.0007548,"INCLINATION":97.3915,"RA_OF_ASC_NODE":148.6513,"ARG_OF_PERICENTER":176.0704,"MEAN_ANOMALY":184.0605,"EPHEMERIS_TYPE":0,"CLASSIFICATION_TYPE":"U","NORAD_CAT_ID":58273,"ELEMENT_SET_NO":999,"REV_AT_EPOCH":12919,"BSTAR":0.00062801,"MEAN_MOTION_DOT":0.00029354,"MEAN_MOTION_DDOT":0}]
