SKYSAT-A                
1 39418U 13066C   26062.08514859  .00004555  00000+0  26551-3 0  9997
2 39418  97.3967 114.8336 0020651 324.6807  35.3055 15.12293304672442
SKYSAT-B                
1 40072U 14037D   26061.80195417  .00002459  00000+0  27660-3 0  9991
2 40072  98.3716  14.8050 0004177 263.0279  97.0460 14.87691447630146
SKYSAT-C1               
1 41601U 16040C   26062.04910447  .00011597  00000+0  35069-3 0  9996
2 41601  96.9708  99.5830 0004007  66.7763 293.3903 15.34346900541580
SKYSAT-C4               
1 41771U 16058B   26062.05010730  .00019171  00000+0  40663-3 0  9992
2 41771  96.9290  88.4551 0000910  78.4840 281.6512 15.45093504529062
SKYSAT-C5               
1 41772U 16058C   26062.10765553  .00010232  00000+0  31188-3 0  9990
2 41772  97.0626 107.4562 0001895  85.5556 274.5904 15.34136355527488
SKYSAT-C2               
1 41773U 16058D   26061.62384549  .00014218  00000+0  36418-3 0  9998
2 41773  97.0285  87.8558 0005376  83.9934 276.1925 15.39471988528645
SKYSAT-C3               
1 41774U 16058E   26062.02981861  .00023815  00000+0  45716-3 0  9998
2 41774  96.9184  97.1843 0001519 100.8409 259.3013 15.47964732529661
SKYSAT-C11              
1 42987U 17068A   26061.94744251  .00031667  00000+0  52867-3 0  9996
2 42987  97.4186 206.7117 0000758  87.5004 272.6335 15.51895202466737
SKYSAT-C10              
1 42988U 17068B   26061.94150088  .00013194  00000+0  42293-3 0  9993
2 42988  97.4323 198.0229 0001164  90.7199 269.4176 15.32479422466076
SKYSAT-C9               
1 42989U 17068C   26061.88494280  .00017815  00000+0  46809-3 0  9993
2 42989  97.4248 197.9454 0009644 155.2859 204.8850 15.38618850466395
SKYSAT-C8               
1 42990U 17068D   26061.93504626  .00007739  00000+0  23358-3 0  9995
2 42990  97.4352 197.4313 0001184 113.5427 246.5940 15.34556497466006
SKYSAT-C7               
1 42991U 17068E   26061.92490973  .00015035  00000+0  45156-3 0  9992
2 42991  97.4353 198.4041 0007361 124.5948 235.5990 15.34499388466064
SKYSAT-C6               
1 42992U 17068F   26062.17308989  .00013477  00000+0  43091-3 0  9990
2 42992  97.4389 198.9573 0003551 128.0954 232.0608 15.32551843466074
SKYSAT-C12              
1 43797U 18099AR  26062.02475598  .00019754  00000+0  41563-3 0  9990
2 43797  96.9381  89.7275 0004830 155.2688 204.8795 15.45314497405441
SKYSAT-C13              
1 43802U 18099AW  26062.06175123  .00086788  00000+0  57161-3 0  9994
2 43802  96.9423 109.6871 0003317 227.2058 132.8930 15.75395895406120
FLOCK 4Q-16             
1 58271U 23174R   26061.95311666  .00029912  00000+0  64812-3 0  9998
2 58271  97.3877 147.9714 0007885 179.5973 180.5283 15.44353414129157
FLOCK 4Q-11             
1 58273U 23174T   26062.15637747  .00029354  00000+0  62801-3 0  9990
2 58273  97.3915 148.6513 0007548 176.0704 184.0605 15.44734789129196
